SatCatId,ObjectName,LaunchYear,OrbitalPeriod,LaunchMass,StatusCode,Inclination,Status,UcsData,OrbitClassEstimated,LaunchSiteCountry,Owner,UseType,Purpose,LaunchVehicleClass,TLE1,TLE2,MeanMotion,Eccentricity,OrbitClass
46052,STARLINK-1541,2020,95.59,260.0,+,53.06,Active,1,LEO,USA,USA,Commercial,Communications,Falcon,1 46052U 20055AB  24023.22774775  .00000095  00000+0  25300-4 0  9998,2 46052  53.0552   2.2881 0001309 104.9305 255.1829 15.06397078191970,15.06397078,0.0001309,LEO
46053,STARLINK-1543,2020,95.59,260.0,+,53.06,Active,1,LEO,USA,USA,Commercial,Communications,Falcon,1 46053U 20055AC  24024.22663179  .00013169  00000+0  90088-3 0  9995,2 46053  53.0550 357.8052 0001273  85.9478 274.1656 15.06417560191638,15.0641756,0.0001273,LEO
46054,STARLINK-1548,2020,95.59,260.0,+,53.06,Active,1,LEO,USA,USA,Commercial,Communications,Falcon,1 46054U 20055AD  24024.23400354  .00011289  00000+0  77520-3 0  9998,2 46054  53.0554 357.7728 0001352 104.5784 255.5355 15.06415338191616,15.06415338,0.0001352,LEO
46055,STARLINK-1554,2020,95.59,260.0,+,53.06,Active,1,LEO,USA,USA,Commercial,Communications,Falcon,1 46055U 20055AE  24024.21925740  .00016138  00000+0  10991-2 0  9994,2 46055  53.0561 357.8412 0001265 101.5573 258.5558 15.06423303191611,15.06423303,0.0001265,LEO
46058,STARLINK-1564,2020,95.59,260.0,+,53.06,Active,1,LEO,USA,USA,Commercial,Communications,Falcon,1 46058U 20055AH  24024.11510638  .00010189  00000+0  70166-3 0  9993,2 46058  53.0559 358.2613 0001248 104.0822 256.0305 15.06415319191605,15.06415319,0.0001248,LEO
46059,STARLINK-1570,2020,95.59,260.0,+,53.06,Active,1,LEO,USA,USA,Commercial,Communications,Falcon,1 46059U 20055AJ  24024.19345575  .00003598  00000+0  26020-3 0  9994,2 46059  53.0572 357.9593 0001764  86.9108 273.2082 15.06419521191615,15.06419521,0.0001764,LEO
46060,STARLINK-1572,2020,95.59,260.0,+,53.06,Active,1,LEO,USA,USA,Commercial,Communications,Falcon,1 46060U 20055AK  24024.12343217  .00010040  00000+0  69175-3 0  9998,2 46060  53.0553 358.2695 0001300  94.6425 265.4712 15.06412008191602,15.06412008,0.00013,LEO
46061,STARLINK-1573,2020,95.59,260.0,+,53.06,Active,1,LEO,USA,USA,Commercial,Communications,Falcon,1 46061U 20055AL  24024.11974572  .00003120  00000+0  22815-3 0  9993,2 46061  53.0558 358.3200 0001333  88.6906 271.4236 15.06411934191609,15.06411934,0.0001333,LEO
46062,STARLINK-1574,2020,95.59,260.0,+,53.06,Active,1,LEO,USA,USA,Commercial,Communications,Falcon,1 46062U 20055AM  24024.14922942  .00009019  00000+0  62338-3 0  9998,2 46062  53.0561 358.1530 0001261  96.6028 263.5105 15.06413188191602,15.06413188,0.0001261,LEO
46063,STARLINK-1577,2020,95.59,260.0,+,53.06,Active,1,LEO,USA,USA,Commercial,Communications,Falcon,1 46063U 20055AN  24024.14553616  .00013705  00000+0  93655-3 0  9990,2 46063  53.0551 358.1725 0001306  90.2986 269.8153 15.06423241191604,15.06423241,0.0001306,LEO
46064,STARLINK-1583,2020,95.59,260.0,+,53.05,Active,1,LEO,USA,USA,Commercial,Communications,Falcon,1 46064U 20055AP  24024.11236873  .00013427  00000+0  91804-3 0  9996,2 46064  53.0545 358.3170 0001365  94.3645 265.7500 15.06420663191602,15.06420663,0.0001365,LEO
46066,STARLINK-1525,2020,95.59,260.0,+,53.06,Active,1,LEO,USA,USA,Commercial,Communications,Falcon,1 46066U 20055AR  24024.11052152  .00018369  00000+0  12480-2 0  9996,2 46066  53.0554 338.3296 0001353  78.0251 282.0889 15.06425460191871,15.0642546,0.0001353,LEO
46067,STARLINK-1529,2020,91.73,260.0,P,53.05,Active,1,LEO,USA,USA,Commercial,Communications,Falcon,1 46067U 20055AS  24024.02909560  .00003864  00000+0  36696-4 0  9992,2 46067  53.0548 300.6506 0001146  97.3137 262.8010 15.69738805192386,15.69738805,0.0001146,LEO
46068,STARLINK-1532,2020,95.59,260.0,+,53.06,Active,1,LEO,USA,USA,Commercial,Communications,Falcon,1 46068U 20055AT  24024.08843883  .00018961  00000+0  12872-2 0  9996,2 46068  53.0563 338.7397 0001256  91.8423 268.2710 15.06433517191865,15.06433517,0.0001256,LEO
46069,STARLINK-1533,2020,95.59,260.0,+,53.06,Active,1,LEO,USA,USA,Commercial,Communications,Falcon,1 46069U 20055AU  24024.14001340  .00019398  00000+0  13166-2 0  9990,2 46069  53.0558 338.1939 0001476  90.7762 269.3396 15.06426825191882,15.06426825,0.0001476,LEO
46070,STARLINK-1536,2020,95.59,260.0,+,53.06,Active,1,LEO,USA,USA,Commercial,Communications,Falcon,1 46070U 20055AV  24024.08747012  .00011839  00000+0  81209-3 0  9994,2 46070  53.0562 338.4222 0001329  86.0567 274.0574 15.06410808191879,15.06410808,0.0001329,LEO
46071,STARLINK-1538,2020,95.59,260.0,+,53.06,Active,1,LEO,USA,USA,Commercial,Communications,Falcon,1 46071U 20055AW  24024.10683749  .00010541  00000+0  72518-3 0  9996,2 46071  53.0561 338.3459 0001567 114.7064 245.4089 15.06416876191879,15.06416876,0.0001567,LEO
46072,STARLINK-1539,2020,95.59,260.0,+,53.05,Active,1,LEO,USA,USA,Commercial,Communications,Falcon,1 46072U 20055AX  24024.13169616  .00007787  00000+0  54128-3 0  9997,2 46072  53.0548 338.2270 0003685  28.0218 332.0968 15.06385677191879,15.06385677,0.0003685,LEO
46073,STARLINK-1542,2020,95.59,260.0,+,53.06,Active,1,LEO,USA,USA,Commercial,Communications,Falcon,1 46073U 20055AY  24024.08103770  .00017003  00000+0  11567-2 0  9992,2 46073  53.0567 338.4629 0001330  97.5209 262.5931 15.06429020191875,15.0642902,0.000133,LEO
46074,STARLINK-1549,2020,95.59,260.0,+,53.06,Active,1,LEO,USA,USA,Commercial,Communications,Falcon,1 46074U 20055AZ  24024.13264493  .00016009  00000+0  10905-2 0  9999,2 46074  53.0557 338.2258 0001423 102.8910 257.2238 15.06424408191880,15.06424408,0.0001423,LEO
46075,STARLINK-1551,2020,95.59,260.0,+,53.06,Active,1,LEO,USA,USA,Commercial,Communications,Falcon,1 46075U 20055BA  24024.09209071  .00017545  00000+0  11929-2 0  9999,2 46075  53.0550 338.4123 0001207  85.0710 275.0417 15.06428068191879,15.06428068,0.0001207,LEO
46076,STARLINK-1552,2020,95.59,260.0,+,53.06,Active,1,LEO,USA,USA,Commercial,Communications,Falcon,1 46076U 20055BB  24024.11789728  .00021205  00000+0  14371-2 0  9997,2 46076  53.0552 338.2954 0001334  85.5756 274.5385 15.06427828191879,15.06427828,0.0001334,LEO
46077,STARLINK-1559,2020,95.59,260.0,+,53.06,Active,1,LEO,USA,USA,Commercial,Communications,Falcon,1 46077U 20055BC  24024.16581030  .00014185  00000+0  96907-3 0  9994,2 46077  53.0562 338.0811 0001556 108.3529 251.7629 15.06407834191883,15.06407834,0.0001556,LEO
46078,STARLINK-1563,2020,95.59,260.0,+,53.06,Active,1,LEO,USA,USA,Commercial,Communications,Falcon,1 46078U 20055BD  24024.14369394  .00015563  00000+0  10605-2 0  9991,2 46078  53.0569 338.1783 0001397 102.9564 257.1581 15.06431228191883,15.06431228,0.0001397,LEO
46079,STARLINK-1566,2020,95.59,260.0,+,53.05,Active,1,LEO,USA,USA,Commercial,Communications,Falcon,1 46079U 20055BE  24024.13632409  .00014432  00000+0  98520-3 0  9998,2 46079  53.0556 338.2101 0001383 106.6357 253.4784 15.06422765191881,15.06422765,0.0001383,LEO
46080,STARLINK-1568,2020,95.59,260.0,+,53.05,Active,1,LEO,USA,USA,Commercial,Communications,Falcon,1 46080U 20055BF  24024.58334491  .00001833  00000+0  14213-3 0  9997,2 46080  53.0547 336.4774 0001577  81.0410 264.4906 15.06347708191948,15.06347708,0.0001577,LEO
46081,STARLINK-1571,2020,95.59,260.0,+,53.06,Active,1,LEO,USA,USA,Commercial,Communications,Falcon,1 46081U 20055BG  24024.12895883  .00017992  00000+0  12228-2 0  9991,2 46081  53.0560 338.2433 0001038 100.0654 260.0452 15.06426281191874,15.06426281,0.0001038,LEO
46082,STARLINK-1578,2020,95.59,260.0,+,53.06,Active,1,LEO,USA,USA,Commercial,Communications,Falcon,1 46082U 20055BH  24023.15587148  .00007639  00000+0  53113-3 0  9992,2 46082  53.0553 342.6146 0001384 125.0942 235.0177 15.06402581192265,15.06402581,0.0001384,LEO
46083,STARLINK-1579,2020,95.59,260.0,+,53.06,Active,1,LEO,USA,USA,Commercial,Communications,Falcon,1 46083U 20055BJ  24024.12065480  .00018945  00000+0  12870-2 0  9997,2 46083  53.0556 338.2734 0001431  93.7613 266.3540 15.06409056191873,15.06409056,0.0001431,LEO
46089,GLOBAL-8,2020,91.63,56.0,+,52.99,Active,1,LEO,USA,USA,Commercial,Earth Observation,Falcon,1 46089U 20055BQ  24023.92773317  .00121725  00000+0  91082-3 0  9999,2 46089  52.9853 273.5757 0007428 129.8609 230.3062 15.71788631201593,15.71788631,0.0007428,LEO
46112,BSAT-4B,2020,1436.07,3520.0,+,0.04,Active,1,GSO,French Guiana,Japan,Commercial,Communications,Ariane,1 46112U 20056A   24024.00951986 -.00000349  00000+0  00000+0 0  9992,2 46112   0.0429 129.1607 0000481  52.5078  54.4050  1.00273382 12622,1.00273382,4.81e-05,GEO
46114,GALAXY 30 (G-30),2020,1436.09,3298.0,+,0.02,Active,1,GSO,French Guiana,USA,Commercial,Communications,Ariane,1 46114U 20056C   24024.30535535  .00000037  00000+0  00000+0 0  9998,2 46114   0.0162  64.7299 0002244 238.7838 164.5047  1.00272384 12631,1.00272384,0.0002244,GEO
46117,STARLINK-1585,2020,95.59,260.0,+,53.05,Active,1,LEO,USA,USA,Commercial,Communications,Falcon,1 46117U 20057A   24023.69032837  .00001520  00000+0  12090-3 0  9994,2 46117  53.0533 180.2122 0001196  93.0193 267.0932 15.06393735189388,15.06393735,0.0001196,LEO
46118,STARLINK-1588,2020,95.59,260.0,+,53.05,Active,1,LEO,USA,USA,Commercial,Communications,Falcon,1 46118U 20057B   24023.96493970  .00001396  00000+0  11259-3 0  9991,2 46118  53.0525 198.9827 0001575  94.5812 265.5357 15.06411666189808,15.06411666,0.0001575,LEO
46119,STARLINK-1593,2020,95.7,260.0,+,53.05,Active,1,LEO,USA,USA,Commercial,Communications,Falcon,1 46119U 20057C   24023.85222418 -.00001206  00000+0 -65172-4 0  9993,2 46119  53.0517 199.8139 0001355  89.0828 271.0315 15.04768194190388,15.04768194,0.0001355,LEO
46120,STARLINK-1601,2020,95.59,260.0,+,53.05,Active,1,LEO,USA,USA,Commercial,Communications,Falcon,1 46120U 20057D   24023.80642652  .00002097  00000+0  15959-3 0  9990,2 46120  53.0526 199.6937 0001265  93.5431 266.5703 15.06403252190400,15.06403252,0.0001265,LEO
